NORAD_CAT_ID,OBJECT_NAME,OBJECT_TYPE,EPOCH,MEAN_MOTION,ECCENTRICITY,INCLINATION,RA_OF_ASC_NODE,ARG_OF_PERICENTER,MEAN_ANOMALY,BSTAR,MEAN_MOTION_DOT,MEAN_MOTION_DDOT,TLE_LINE0,TLE_LINE1,TLE_LINE2,SEMIMAJOR_AXIS,PERIOD,APOGEE,PERIGEE,DECAYED
52686.0,STARLINK-4005,PAYLOAD,2023-03-24 21:37:02,15.08875735,0.0001272,53.2158,315.9747,94.2256,265.8882,0.0013922,0.0002196,0.0,0 STARLINK-4005,1 52686U 22053AG  23083.90072357  .00021960  00000-0  13922-2 0  9995,2 52686  53.2158 315.9747 0001272  94.2256 265.8882 15.08875735 47581,6917.771,95.435,540.516,538.756,0.0
52686.0,STARLINK-4005,PAYLOAD,2023-03-25 02:23:11,15.0890613,0.0001283,53.2151,315.0822,76.5336,283.5799,0.0019008,0.00030148,0.0,0 STARLINK-4005,1 52686U 22053AG  23084.09943424  .00030148  00000-0  19008-2 0  9997,2 52686  53.2151 315.0822 0001283  76.5336 283.5799 15.08906130 47615,6917.678,95.433,540.431,538.656,0.0
52686.0,STARLINK-4005,PAYLOAD,2023-03-25 19:52:27,15.08808406,0.0001422,53.2147,311.8096,125.1601,234.9525,0.00061145,9.448e-05,0.0,0 STARLINK-4005,1 52686U 22053AG  23084.82809541  .00009448  00000-0  61145-3 0  9998,2 52686  53.2147 311.8096 0001422 125.1601 234.9525 15.08808406 47724,6917.977,95.44,540.826,538.858,0.0
52686.0,STARLINK-4005,PAYLOAD,2023-03-25 21:27:51,15.08798859,0.0001328,53.2158,311.512,95.294,264.8204,0.00062808,9.711e-05,0.0,0 STARLINK-4005,1 52686U 22053AG  23084.89434039  .00009711  00000-0  62808-3 0  9991,2 52686  53.2158 311.5120 0001328  95.2940 264.8204 15.08798859 48119,6918.006,95.44,540.79,538.952,0.0
52686.0,STARLINK-4005,PAYLOAD,2023-03-25 23:03:14,15.08792948,0.0001388,53.216,311.2141,96.2584,263.8566,0.00066667,0.00010324,0.0,0 STARLINK-4005,1 52686U 22053AG  23084.96058348  .00010324  00000-0  66667-3 0  9993,2 52686  53.2160 311.2141 0001388  96.2584 263.8566 15.08792948 47744,6918.024,95.441,540.849,538.929,0.0
52686.0,STARLINK-4005,PAYLOAD,2023-03-26 21:18:40,15.08811583,0.0001325,53.2162,307.0526,90.7785,269.3359,0.00073125,0.0001136,0.0,0 STARLINK-4005,1 52686U 22053AG  23085.88796699  .00011360  00000-0  73125-3 0  9991,2 52686  53.2162 307.0526 0001325  90.7785 269.3359 15.08811583 48265,6917.967,95.439,540.749,538.916,0.0
52686.0,STARLINK-4005,PAYLOAD,2023-03-27 00:29:26,15.08822733,0.000129,53.2156,306.4574,86.1596,273.9543,0.0010412,0.00016314,0.0,0 STARLINK-4005,1 52686U 22053AG  23086.02044763  .00016314  00000-0  10412-2 0  9999,2 52686  53.2156 306.4574 0001290  86.1596 273.9543 15.08822733 47909,6917.933,95.439,540.691,538.906,0.0
52686.0,STARLINK-4005,PAYLOAD,2023-03-27 21:09:25,15.0889386,0.0001184,53.2157,302.5908,84.1889,275.9238,0.0017916,0.00028383,0.0,0 STARLINK-4005,1 52686U 22053AG  23086.88154888  .00028383  00000-0  17916-2 0  9998,2 52686  53.2157 302.5908 0001184  84.1889 275.9238 15.08893860 48030,6917.716,95.434,540.4,538.762,0.0
52686.0,STARLINK-4005,PAYLOAD,2023-03-28 13:03:16,15.08878062,0.0002765,53.2156,299.6164,91.2639,268.867,0.0015829,0.00025021,0.0,0 STARLINK-4005,1 52686U 22053AG  23087.54394437  .00025021  00000-0  15829-2 0  9995,2 52686  53.2156 299.6164 0002765  91.2639 268.8670 15.08878062 48136,6917.764,95.435,541.542,537.716,0.0
52686.0,STARLINK-4005,PAYLOAD,2023-03-28 14:38:39,15.0887109,0.0002562,53.2159,299.318,92.087,268.0416,0.0010158,0.00015929,0.0,0 STARLINK-4005,1 52686U 22053AG  23087.61018306  .00015929  00000-0  10158-2 0  9997,2 52686  53.2159 299.3180 0002562  92.0870 268.0416 15.08871090 48522,6917.785,95.436,541.423,537.878,0.0
52686.0,STARLINK-4005,PAYLOAD,2023-03-28 21:00:11,15.08865817,0.0001191,53.2159,298.1305,110.0017,250.1103,0.0005534,8.537e-05,0.0,0 STARLINK-4005,1 52686U 22053AG  23087.87513873  .00008537  00000-0  55340-3 0  9994,2 52686  53.2159 298.1305 0001191 110.0017 250.1103 15.08865817 48186,6917.801,95.436,540.49,538.843,0.0
52686.0,STARLINK-4005,PAYLOAD,2023-03-29 00:10:58,15.08875383,0.0001106,53.2155,297.5355,115.3339,244.7768,0.0011125,0.00017479,0.0,0 STARLINK-4005,1 52686U 22053AG  23088.00761613  .00017479  00000-0  11125-2 0  9994,2 52686  53.2155 297.5355 0001106 115.3339 244.7768 15.08875383 48209,6917.772,95.435,540.402,538.872,0.0
52686.0,STARLINK-4005,PAYLOAD,2023-03-29 20:51:00,15.08822121,0.0001063,53.2153,293.6706,95.9007,264.2107,0.0010772,0.00016889,0.0,0 STARLINK-4005,1 52686U 22053AG  23088.86875046  .00016889  00000-0  10772-2 0  9995,2 52686  53.2153 293.6706 0001063  95.9007 264.2107 15.08822121 48331,6917.935,95.439,540.535,539.065,0.0
52686.0,STARLINK-4005,PAYLOAD,2023-03-30 19:06:23,15.08865234,9.14e-05,53.2145,289.5063,81.9851,278.1245,0.0015597,0.00024639,0.0,0 STARLINK-4005,1 52686U 22053AG  23089.79610865  .00024639  00000-0  15597-2 0  9996,2 52686  53.2145 289.5063 0000914  81.9851 278.1245 15.08865234 48854,6917.803,95.436,540.301,539.036,0.0
52686.0,STARLINK-4005,PAYLOAD,2023-03-30 23:52:32,15.08875429,8.98e-05,53.2145,288.6142,83.2052,276.9043,0.0014978,0.00023653,0.0,0 STARLINK-4005,1 52686U 22053AG  23089.99482370  .00023653  00000-0  14978-2 0  9993,2 52686  53.2145 288.6142 0000898  83.2052 276.9043 15.08875429 48502,6917.772,95.435,540.258,539.016,0.0
52686.0,STARLINK-4005,PAYLOAD,2023-03-31 06:14:05,15.08856386,0.0001291,53.2143,287.4235,92.2036,267.9103,0.00059626,9.218e-05,0.0,0 STARLINK-4005,1 52686U 22053AG  23090.25978612  .00009218  00000-0  59626-3 0  9994,2 52686  53.2143 287.4235 0001291  92.2036 267.9103 15.08856386 48542,6917.83,95.437,540.588,538.802,0.0
52686.0,STARLINK-4005,PAYLOAD,2023-03-31 20:32:33,15.08851512,0.0001106,53.2144,284.7479,89.6325,270.4794,0.00019802,2.866e-05,0.0,0 STARLINK-4005,1 52686U 22053AG  23090.85594257  .00002866  00000-0  19802-3 0  9993,2 52686  53.2144 284.7479 0001106  89.6325 270.4794 15.08851512 48630,6917.845,95.437,540.475,538.945,0.0
52686.0,STARLINK-4005,PAYLOAD,2023-03-31 23:43:19,15.08864494,0.0001093,53.2151,284.1551,94.2096,265.9021,0.00086921,0.00013582,0.0,0 STARLINK-4005,1 52686U 22053AG  23090.98842003  .00013582  00000-0  86921-3 0  9995,2 52686  53.2151 284.1551 0001093  94.2096 265.9021 15.08864494 48652,6917.806,95.436,540.427,538.914,0.0
52686.0,STARLINK-4005,PAYLOAD,2023-04-01 18:47:58,15.08836725,0.0001069,53.2144,280.5852,77.4872,282.624,0.0012327,0.00019383,0.0,0 STARLINK-4005,1 52686U 22053AG  23091.78331249  .00019383  00000-0  12327-2 0  9992,2 52686  53.2144 280.5852 0001069  77.4872 282.6240 15.08836725 48774,6917.89,95.438,540.495,539.016,0.0
52686.0,STARLINK-4005,PAYLOAD,2023-04-02 12:17:12,15.0884208,0.0001125,53.2143,277.3146,77.2639,282.8479,0.00066565,0.00010322,0.0,0 STARLINK-4005,1 52686U 22053AG  23092.51195471  .00010322  00000-0  66565-3 0  9997,2 52686  53.2143 277.3146 0001125  77.2639 282.8479 15.08842080 48884,6917.874,95.437,540.517,538.961,0.0
52686.0,STARLINK-4005,PAYLOAD,2023-04-02 18:38:45,15.0885435,0.0001118,53.2145,276.1264,72.5801,287.5313,0.00097478,0.00015266,0.0,0 STARLINK-4005,1 52686U 22053AG  23092.77691250  .00015266  00000-0  97478-3 0  9990,2 52686  53.2145 276.1264 0001118  72.5801 287.5313 15.08854350 49305,6917.837,95.437,540.475,538.928,0.0
52686.0,STARLINK-4005,PAYLOAD,2023-04-03 12:07:59,15.08842764,0.0001149,53.2141,272.8555,70.9501,289.1616,0.00010725,1.42e-05,0.0,0 STARLINK-4005,1 52686U 22053AG  23093.50555147  .00001420  00000-0  10725-3 0  9993,2 52686  53.2141 272.8555 0001149  70.9501 289.1616 15.08842764 49030,6917.872,95.437,540.532,538.942,0.0
52686.0,STARLINK-4005,PAYLOAD,2023-04-03 18:29:32,15.08848538,0.0001114,53.2141,271.6659,77.1295,282.9822,0.00035481,5.365e-05,0.0,0 STARLINK-4005,1 52686U 22053AG  23093.77050992  .00005365  00000-0  35481-3 0  9998,2 52686  53.2141 271.6659 0001114  77.1295 282.9822 15.08848538 49454,6917.854,95.437,540.49,538.949,0.0
52686.0,STARLINK-4005,PAYLOAD,2023-04-04 10:23:23,15.08853455,7.85e-05,53.2149,268.6928,65.849,294.2584,0.00074308,0.00011562,0.0,0 STARLINK-4005,1 52686U 22053AG  23094.43290799  .00011562  00000-0  74308-3 0  9990,2 52686  53.2149 268.6928 0000785  65.8490 294.2584 15.08853455 49557,6917.839,95.437,540.247,539.161,0.0
52686.0,STARLINK-4005,PAYLOAD,2023-04-05 11:49:33,15.08834832,9.08e-05,53.2137,263.9327,355.7434,4.355,-6.953e-05,-1.394e-05,0.0,0 STARLINK-4005,1 52686U 22053AG  23095.49275227 -.00001394  00000-0 -69530-4 0  9992,2 52686  53.2137 263.9327 0000908 355.7434   4.3550 15.08834832 49338,6917.896,95.438,540.389,539.133,0.0
52686.0,STARLINK-4005,PAYLOAD,2023-04-05 18:11:06,15.08839832,0.0001072,53.2144,262.742,81.8812,278.2302,6.9793e-05,8.23e-06,0.0,0 STARLINK-4005,1 52686U 22053AG  23095.75771309  .00000823  00000-0  69793-4 0  9998,2 52686  53.2144 262.7420 0001072  81.8812 278.2302 15.08839832 49755,6917.881,95.438,540.487,539.004,0.0
52686.0,STARLINK-4005,PAYLOAD,2023-04-06 03:43:25,15.0883885,0.0001135,53.2147,260.9583,84.5461,275.5661,8.7643e-05,1.107e-05,0.0,0 STARLINK-4005,1 52686U 22053AG  23096.15515350  .00001107  00000-0  87643-4 0  9995,2 52686  53.2147 260.9583 0001135  84.5461 275.5661 15.08838850 49430,6917.884,95.438,540.534,538.964,0.0
52686.0,STARLINK-4005,PAYLOAD,2023-04-06 11:40:21,15.08838215,0.0001355,53.2151,259.4729,91.7306,268.3842,0.00013537,1.867e-05,0.0,0 STARLINK-4005,1 52686U 22053AG  23096.48635496  .00001867  00000-0  13537-3 0  9998,2 52686  53.2151 259.4729 0001355  91.7306 268.3842 15.08838215 49865,6917.886,95.438,540.688,538.813,0.0
52686.0,STARLINK-4005,PAYLOAD,2023-04-06 18:01:53,15.08845102,0.0001296,53.2153,258.2845,92.1938,267.9202,0.00023772,3.498e-05,0.0,0 STARLINK-4005,1 52686U 22053AG  23096.75131224  .00003498  00000-0  23772-3 0  9992,2 52686  53.2153 258.2845 0001296  92.1938 267.9202 15.08845102 49906,6917.865,95.437,540.626,538.833,0.0
52686.0,STARLINK-4005,PAYLOAD,2023-04-07 13:06:31,15.0883602,0.0001235,53.2141,254.7157,100.84,259.2731,0.00018358,2.635e-05,0.0,0 STARLINK-4005,1 52686U 22053AG  23097.54619601  .00002635  00000-0  18358-3 0  9996,2 52686  53.2141 254.7157 0001235 100.8400 259.2731 15.08836020 50029,6917.893,95.438,540.612,538.903,0.0
